STARLINK-11654 [DTC]    
1 63265U 25053A   25114.66375535  .00003012  00000+0  20185-4 0  9995
2 63265  42.9983 238.0234 0002160 278.4419  81.6206 15.77837129  7465
STARLINK-11659 [DTC]    
1 63266U 25053B   25114.65885152  .00003978  00000+0  25696-4 0  9999
2 63266  42.9987 237.9830 0002025 255.3961 104.6684 15.77873205  7467
STARLINK-11653 [DTC]    
1 63267U 25053C   25114.77569862 -.00003518  00000+0 -17333-4 0  9991
2 63267  42.9998 237.1369 0002115 273.2799  86.7830 15.77879968  7484
STARLINK-11641 [DTC]    
1 63268U 25053D   25114.71726350  .00003396  00000+0  22374-4 0  9996
2 63268  43.0034 237.5601 0002465 266.9468  93.1120 15.77863348  7570
STARLINK-11638 [DTC]    
1 63269U 25053E   25114.70752043  .00000538  00000+0  59651-5 0  9998
2 63269  43.0004 237.4788 0002622 251.9136 108.1448 15.77862512  7576
STARLINK-11614 [DTC]    
1 63270U 25053F   25114.61556581  .00002708  00000+0  18425-4 0  9993
2 63270  42.9975 238.5392 0001129 300.1231  59.9527 15.77846076  7455
STARLINK-11620 [DTC]    
1 63271U 25053G   25113.66559499  .00007553  00000+0  46262-4 0  9992
2 63271  43.0027 244.3142 0002711 284.6523  75.4046 15.77842225  7295
STARLINK-11619 [DTC]    
1 63272U 25053H   25114.80009616  .00001154  00000+0  94970-5 0  9992
2 63272  43.0004 237.3353 0001994 287.4074  72.6578 15.77864996  7480
STARLINK-11621 [DTC]    
1 63273U 25053J   25114.79521465  .00004363  00000+0  27915-4 0  9991
2 63273  42.9982 237.2955 0002518 271.5748  88.4834 15.77868704  7487
STARLINK-11615 [DTC]    
1 63274U 25053K   25114.69837964  .00006444  00000+0  39878-4 0  9998
2 63274  43.0001 238.3065 0002238 284.2822  75.7799 15.77850064  7466
STARLINK-11608 [DTC]    
1 63275U 25053L   25114.91668981 -.00001785  00000+0 -73970-5 0  9992
2 63275  42.9994 236.9057 0001711 268.3847 281.0491 15.77837828  7482
STARLINK-11623 [DTC]    
1 63276U 25053M   25114.43542058  .00000416  00000+0  52580-5 0  9998
2 63276  42.9990 239.7674 0001649 264.5015  95.5667 15.77863198  7415
STARLINK-11612 [DTC]    
1 63277U 25053N   25114.43054605  .00000533  00000+0  59286-5 0  9995
2 63277  42.9975 239.7331 0001406 278.9459  81.1252 15.77857281  7429
STARLINK-33660          
1 63278U 25053P   25114.71006838  .00004026  00000+0  10366-3 0  9997
2 63278  43.0048 244.5913 0001096 274.4857  85.5874 15.40678122  7390
STARLINK-33611          
1 63279U 25053Q   25114.72113042  .00000869  00000+0  28065-4 0  9992
2 63279  43.0006 243.8037 0000879 273.9226  86.1530 15.40698316  7513
STARLINK-33646          
1 63280U 25053R   25114.75248755  .00001713  00000+0  48274-4 0  9990
2 63280  43.0014 244.0468 0001489 259.1063 100.9626 15.40699664  7404
STARLINK-33665          
1 63281U 25053S   25115.00001157 -.00113783  00000+0 -27514-2 0  9998
2 63281  42.9998 242.0755 0001398 268.7657 249.7391 15.40764656  7567
STARLINK-33603          
1 63282U 25053T   25113.86496443 -.00006030  00000+0 -13746-3 0  9996
2 63282  43.0025 248.5497 0002595 277.2688  82.7873 15.40638408  7389
STARLINK-33669          
1 63283U 25053U   25114.79267451  .00001698  00000+0  47912-4 0  9991
2 63283  43.0022 243.4845 0001736 283.5118  76.5545 15.40704635  7419
STARLINK-33673          
1 63284U 25053V   25114.72336270  .00000808  00000+0  26620-4 0  9996
2 63284  43.0019 243.8177 0001967 258.3885 101.6751 15.40703179  7517
STARLINK-33662          
1 63285U 25053W   25114.73232623  .00002719  00000+0  72302-4 0  9996
2 63285  43.0006 243.8863 0001554 247.4969 112.5723 15.40707452  7406
STARLINK-33613          
1 63286U 25053X   25114.83300024 -.00003056  00000+0 -65841-4 0  9996
2 63286  43.0016 243.7951 0001944 263.0485  97.0150 15.40726084  7419
STARLINK-33680          
1 63287U 25053Y   25114.67198186  .00000850  00000+0  27603-4 0  9994
2 63287  43.0027 244.3030 0001475 291.5900  68.4799 15.40703393  7446
COSMOS 2585             
1 63288U 25054A   25115.52227184  .00000054  00000+0  32492-3 0  9999
2 63288  82.4970 338.5977 0017736 233.8649 126.0789 12.41678379  4971
COSMOS 2586             
1 63289U 25054B   25115.49758381  .00000055  00000+0  32688-3 0  9992
2 63289  82.4938 338.5588 0019327 213.9421 146.0424 12.42776582  4962
COSMOS 2587             
1 63290U 25054C   25114.90530702  .00000055  00000+0  32747-3 0  9990
2 63290  82.4996 338.9085 0013958 199.5718 160.4828 12.42824678  4896
2025-055A               
1 63291U 25055A   25115.53854554  .00015738  00000+0  94534-3 0  9992
2 63291  97.6047 250.6714 0013877 157.8405 202.3427 15.10902372  5923
2025-055B               
1 63292U 25055B   25115.53932501  .00014782  00000+0  89018-3 0  9991
2 63292  97.6022 250.6577 0014100 157.3198 202.8658 15.10820954  5889
2025-055C               
1 63293U 25055C   25115.54024709  .00015213  00000+0  91736-3 0  9995
2 63293  97.6033 250.6620 0014477 155.2005 204.9924 15.10761839  5887
2025-055D               
1 63294U 25055D   25115.54261043  .00015187  00000+0  91766-3 0  9993
2 63294  97.6034 250.6591 0014393 154.1273 206.0679 15.10689558  5885
2025-055E               
1 63295U 25055E   25115.54337605  .00015252  00000+0  92230-3 0  9992
2 63295  97.6021 250.6514 0013918 154.3786 205.8136 15.10665154  5881
2025-055F               
1 63296U 25055F   25115.54246531  .00015598  00000+0  94065-3 0  9991
2 63296  97.6045 250.6651 0013803 155.0165 205.1735 15.10760795  5887
2025-055G               
1 63297U 25055G   25115.53719279  .00020254  00000+0  12037-2 0  9998
2 63297  97.6029 250.6645 0012791 158.1306 202.0472 15.11245053  5889
2025-055H               
1 63298U 25055H   25115.52908295  .00030998  00000+0  18064-2 0  9998
2 63298  97.6024 250.6740 0013146 158.8767 201.3008 15.11857656  5889
KINEIS-4E               
1 63300U 25056A   25113.04890239  .00004526  00000+0  70244-3 0  9993
2 63300  97.9734 239.7840 0001781 139.2136 220.9206 14.73598843  5309
KINEIS-4C               
1 63301U 25056B   25115.55480964  .00005144  00000+0  76769-3 0  9997
2 63301  97.9740 242.2621 0001158 171.5047 188.6181 14.75228089  5677
KINEIS-4D               
1 63302U 25056C   25115.55175387  .00005120  00000+0  76224-3 0  9998
2 63302  97.9740 242.2661 0001590 176.0085 184.1137 14.75335834  5673
KINEIS-4A               
1 63303U 25056D   25113.64844328  .00004427  00000+0  67685-3 0  9995
2 63303  97.9750 240.4036 0002136 178.2411 181.8806 14.74256285  5392
KINEIS-4B               
1 63304U 25056E   25113.77788818  .00004454  00000+0  66648-3 0  9999
2 63304  97.9739 240.5423 0003729 153.4769 206.6632 14.75183490  5404
STARLINK-11568 [DTC]    
1 63307U 25057A   25115.44130612  .00000530  00000+0  59134-5 0  9997
2 63307  43.0002  22.9910 0001926 279.2032  80.8621 15.77861588  5967
STARLINK-11575 [DTC]    
1 63308U 25057B   25114.80413577 -.00089327  00000+0 -53285-3 0  9993
2 63308  43.0001  26.8143 0001522 242.1214 117.9502 15.77132157  5863
STARLINK-11585 [DTC]    
1 63309U 25057C   25115.43156256 -.00001245  00000+0 -42914-5 0  9994
2 63309  42.9976  22.9101 0001949 302.4130  57.6551 15.77837120  5961
STARLINK-11587 [DTC]    
1 63310U 25057D   25115.45521574 -.00000201  00000+0  19365-5 0  9991
2 63310  43.0025  23.1037 0002173 260.6424  99.4198 15.70826027  5960
STARLINK-11589 [DTC]    
1 63311U 25057E   25115.46053307 -.00001385  00000+0 -73087-5 0  9993
2 63311  43.0010  23.1453 0001721 266.1156  93.9515 15.70819636  5968
STARLINK-11650 [DTC]    
1 63312U 25057F   25115.44551697 -.00000058  00000+0  30384-5 0  9995
2 63312  42.9978  23.0255 0001205 280.3661  79.7071 15.70812562  7158
STARLINK-11648 [DTC]    
1 63313U 25057G   25114.80875936  .00000163  00000+0  47623-5 0  9990
2 63313  42.9985  26.8462 0001191 260.3321  99.7412 15.70830729  6620
STARLINK-11640 [DTC]    
1 63314U 25057H   25114.80344843  .00003053  00000+0  27276-4 0  9991
2 63314  42.9996  26.8071 0001398 263.9835  96.0874 15.70841103  5862
STARLINK-11652 [DTC]    
1 63315U 25057J   25114.91668981 -.00001223  00000+0 -60432-5 0  9997
2 63315  42.9992  25.9767 0001718 264.1439  77.1876 15.70820851  6051
STARLINK-11645 [DTC]    
1 63316U 25057K   25115.44988056  .00001836  00000+0  17789-4 0  9999
2 63316  42.9992  23.0580 0001017 263.2422  96.8330 15.70852902  7155
STARLINK-11633 [DTC]    
1 63317U 25057L   25115.50001157 -.00035254  00000+0 -27241-3 0  9991
2 63317  43.0000  22.0834 0001875 256.4327 297.9009 15.70838501  7122
STARLINK-11593 [DTC]    
1 63318U 25057M   25115.00001157 -.00084576  00000+0 -66230-3 0  9999
2 63318  42.9991  25.2486 0001687 267.6066 275.7038 15.70840319  7084
STARLINK-11588 [DTC]    
1 63319U 25057N   25114.97826639  .00000569  00000+0  79334-5 0  9994
2 63319  42.9999  25.5266 0001705 210.4633 149.6136 15.70835244  6920
STARLINK-33671          
1 63320U 25057P   25114.81004146  .00000222  00000+0  12601-4 0  9999
2 63320  42.9986  32.1790 0002379 296.8420  63.2193 15.40699157  7006
STARLINK-33650          
1 63321U 25057Q   25113.93593650 -.00001904  00000+0 -38312-4 0  9992
2 63321  42.9956  36.7832 0004731 299.8932  60.1454 15.40666072  6832
STARLINK-33689          
1 63322U 25057R   25115.50001157 -.01537733  00000+0 -47096-1 0  9995
2 63322  43.0011  27.5946 0001529 274.5976 207.7032 15.36395781  7115
STARLINK-33607          
1 63323U 25057S   25115.44487776  .00001820  00000+0  50794-4 0  9996
2 63323  43.0038  28.3427 0001404 269.3268  90.7428 15.40715872  6734
STARLINK-33619          
1 63324U 25057T   25115.50001157 -.01542104  00000+0 -47876-1 0  9991
2 63324  43.0009  27.4776 0001462 267.3498 262.6540 15.35987684  7111
STARLINK-33612          
1 63325U 25057U   25113.76670786 -.00079399  00000+0 -19567-2 0  9995
2 63325  42.9976  38.1054 0001002 322.0216  38.0570 15.40024661  6848
STARLINK-33672          
1 63326U 25057V   25115.50001157  .00032871  00000+0  12003-2 0  9990
2 63326  43.0014  27.5621 0001475 257.3270 233.0474 15.27535981  7118
